{"type": "FeatureCollection", "features": [ {"type": "Feature", "properties": {"norad_id": 32289, "name": "YAOGAN-3", "group": "resource", "lat": 77.06591979509189, "lon": -133.75044656885478, "alt_km": 590.3178675547097, "timestamp": "2025-12-08T17:43:04.550548+00:00", "meta": {"OBJECT_NAME": "YAOGAN-3", "OBJECT_ID": "2007-055A", "EPOCH": "2025-12-08T07:35:52.786752", "MEAN_MOTION": 14.8982712, "ECCENTRICITY": 0.00014261, "INCLINATION": 97.8368, "RA_OF_ASC_NODE": 8.9815, "ARG_OF_PERICENTER": 76.2562, "MEAN_ANOMALY": 283.8815, "EPHEMERIS_TYPE": 0, "CLASSIFICATION_TYPE": "U", "NORAD_CAT_ID": 32289, "ELEMENT_SET_NO": 999, "REV_AT_EPOCH": 97743, "BSTAR": 0.00039894622, "MEAN_MOTION_DOT": 3.776e-05, "MEAN_MOTION_DDOT": 0}, "tle": {"line1": "1 32289U 07055A   25342.31658318  .00003776  00000+0  39895-3 0  9991", "line2": "2 32289  97.8368   8.9815 0001426  76.2562 283.8815 14.89827120977436"}}, "geometry": {"type": "Point", "coordinates": [-133.75044656885478, 77.06591979509189]}}, {"type": "Feature", "properties": {"norad_id": 32376, "name": "COSMO-SKYMED 2", "group": "resource", "lat": 49.44038012298423, "lon": -6.563931538247678, "alt_km": 617.2935962811389, "timestamp": "2025-12-08T17:43:04.550561+00:00", "meta": {"OBJECT_NAME": "COSMO-SKYMED 2", "OBJECT_ID": "2007-059A", "EPOCH": "2025-12-08T05:47:32.917344", "MEAN_MOTION": 14.82157934, "ECCENTRICITY": 0.00015248, "INCLINATION": 97.8812, "RA_OF_ASC_NODE": 163.6328, "ARG_OF_PERICENTER": 86.282, "MEAN_ANOMALY": 273.8568, "EPHEMERIS_TYPE": 0, "CLASSIFICATION_TYPE": "U", "NORAD_CAT_ID": 32376, "ELEMENT_SET_NO": 999, "REV_AT_EPOCH": 97371, "BSTAR": 0.00014661367, "MEAN_MOTION_DOT": 1.115e-05, "MEAN_MOTION_DDOT": 0}, "tle": {"line1": "1 32376U 07059A   25342.24135321  .00001115  00000+0  14661-3 0  9997", "line2": "2 32376  97.8812 163.6328 0001524  86.2820 273.8568 14.82157934973715"}}, "geometry": {"type": "Point", "coordinates": [-6.563931538247678, 49.44038012298423]}}, {"type": "Feature", "properties": {"norad_id": 32382, "name": "RADARSAT-2", "group": "resource", "lat": 69.0536163980584, "lon": -169.38463541570016, "alt_km": 784.3110716459541, "timestamp": "2025-12-08T17:43:04.550573+00:00", "meta": {"OBJECT_NAME": "RADARSAT-2", "OBJECT_ID": "2007-061A", "EPOCH": "2025-12-08T07:08:01.147200", "MEAN_MOTION": 14.29985638, "ECCENTRICITY": 0.00010864, "INCLINATION": 98.5799, "RA_OF_ASC_NODE": 346.952, "ARG_OF_PERICENTER": 91.7971, "MEAN_ANOMALY": 268.3335, "EPHEMERIS_TYPE": 0, "CLASSIFICATION_TYPE": "U", "NORAD_CAT_ID": 32382, "ELEMENT_SET_NO": 999, "REV_AT_EPOCH": 93867, "BSTAR": 7.7213705e-05, "MEAN_MOTION_DOT": 1.55e-06, "MEAN_MOTION_DDOT": 0}, "tle": {"line1": "1 32382U 07061A   25342.29723550  .00000155  00000+0  77214-4 0  9996", "line2": "2 32382  98.5799 346.9520 0001086  91.7971 268.3335 14.29985638938673"}}, "geometry": {"type": "Point", "coordinates": [-169.38463541570016, 69.0536163980584]}}, {"type": "Feature", "properties": {"norad_id": 32783, "name": "CARTOSAT-2A", "group": "resource", "lat": -43.68117556975207, "lon": 40.2023370782159, "alt_km": 635.320850759822, "timestamp": "2025-12-08T17:43:04.550584+00:00", "meta": {"OBJECT_NAME": "CARTOSAT-2A", "OBJECT_ID": "2008-021A", "EPOCH": "2025-12-08T06:33:01.864800", "MEAN_MOTION": 14.78925323, "ECCENTRICITY": 0.00121424, "INCLINATION": 97.7936, "RA_OF_ASC_NODE": 32.2359, "ARG_OF_PERICENTER": 18.7727, "MEAN_ANOMALY": 341.393, "EPHEMERIS_TYPE": 0, "CLASSIFICATION_TYPE": "U", "NORAD_CAT_ID": 32783, "ELEMENT_SET_NO": 999, "REV_AT_EPOCH": 95058, "BSTAR": 0.00023626864, "MEAN_MOTION_DOT": 1.694e-05, "MEAN_MOTION_DDOT": 0}, "tle": {"line1": "1 32783U 08021A   25342.27293825  .00001694  00000+0  23627-3 0  9990", "line2": "2 32783  97.7936  32.2359 0012142  18.7727 341.3930 14.78925323950586"}}, "geometry": {"type": "Point", "coordinates": [40.2023370782159, -43.68117556975207]}}, {"type": "Feature", "properties": {"norad_id": 33320, "name": "HUANJING 1A (HJ-1A)", "group": "resource", "lat": 61.376762918404346, "lon": 165.46896921708827, "alt_km": 607.9691955828666, "timestamp": "2025-12-08T17:43:04.550596+00:00", "meta": {"OBJECT_NAME": "HUANJING 1A (HJ-1A)", "OBJECT_ID": "2008-041A", "EPOCH": "2025-12-08T05:51:31.879008", "MEAN_MOTION": 14.83372973, "ECCENTRICITY": 0.00204102, "INCLINATION": 97.654, "RA_OF_ASC_NODE": 330.7301, "ARG_OF_PERICENTER": 48.611, "MEAN_ANOMALY": 311.6855, "EPHEMERIS_TYPE": 0, "CLASSIFICATION_TYPE": "U", "NORAD_CAT_ID": 33320, "ELEMENT_SET_NO": 999, "REV_AT_EPOCH": 93009, "BSTAR": 0.00033681935, "MEAN_MOTION_DOT": 2.721e-05, "MEAN_MOTION_DDOT": 0}, "tle": {"line1": "1 33320U 08041A   25342.24411897  .00002721  00000+0  33682-3 0  9992", "line2": "2 33320  97.6540 330.7301 0020410  48.6110 311.6855 14.83372973930095"}}, "geometry": {"type": "Point", "coordinates": [165.46896921708827, 61.376762918404346]}}, {"type": "Feature", "properties": {"norad_id": 33321, "name": "HUANJING 1B (HJ-1B)", "group": "resource", "lat": -13.70212915690893, "lon": -23.21346514213016, "alt_km": 630.6439595389675, "timestamp": "2025-12-08T17:43:04.550607+00:00", "meta": {"OBJECT_NAME": "HUANJING 1B (HJ-1B)", "OBJECT_ID": "2008-041B", "EPOCH": "2025-12-08T06:26:36.008448", "MEAN_MOTION": 14.828038, "ECCENTRICITY": 0.00382334, "INCLINATION": 97.6398, "RA_OF_ASC_NODE": 334.4622, "ARG_OF_PERICENTER": 89.9808, "MEAN_ANOMALY": 270.5787, "EPHEMERIS_TYPE": 0, "CLASSIFICATION_TYPE": "U", "NORAD_CAT_ID": 33321, "ELEMENT_SET_NO": 999, "REV_AT_EPOCH": 93011, "BSTAR": 0.00028207054, "MEAN_MOTION_DOT": 2.259e-05, "MEAN_MOTION_DDOT": 0}, "tle": {"line1": "1 33321U 08041B   25342.26847232  .00002259  00000+0  28207-3 0  9994", "line2": "2 33321  97.6398 334.4622 0038233  89.9808 270.5787 14.82803800930115"}}, "geometry": {"type": "Point", "coordinates": [-23.21346514213016, -13.70212915690893]}}, {"type": "Feature", "properties": {"norad_id": 33331, "name": "GEOEYE 1", "group": "resource", "lat": -51.08090338215321, "lon": -136.12299710849538, "alt_km": 683.7438153862777, "timestamp": "2025-12-08T17:43:04.550620+00:00", "meta": {"OBJECT_NAME": "GEOEYE 1", "OBJECT_ID": "2008-042A", "EPOCH": "2025-12-08T06:49:35.068224", "MEAN_MOTION": 14.64803929, "ECCENTRICITY": 0.00028075, "INCLINATION": 98.1257, "RA_OF_ASC_NODE": 53.6207, "ARG_OF_PERICENTER": 296.5347, "MEAN_ANOMALY": 63.5568, "EPHEMERIS_TYPE": 0, "CLASSIFICATION_TYPE": "U", "NORAD_CAT_ID": 33331, "ELEMENT_SET_NO": 999, "REV_AT_EPOCH": 92220, "BSTAR": 0.00024133487, "MEAN_MOTION_DOT": 1.24e-05, "MEAN_MOTION_DDOT": 0}, "tle": {"line1": "1 33331U 08042A   25342.28443366  .00001240  00000+0  24133-3 0  9991", "line2": "2 33331  98.1257  53.6207 0002807 296.5347  63.5568 14.64803929922207"}}, "geometry": {"type": "Point", "coordinates": [-136.12299710849538, -51.08090338215321]}}, {"type": "Feature", "properties": {"norad_id": 33396, "name": "THEOS", "group": "resource", "lat": 11.363926725533858, "lon": 39.20549247903378, "alt_km": 826.3211150803154, "timestamp": "2025-12-08T17:43:04.550636+00:00", "meta": {"OBJECT_NAME": "THEOS", "OBJECT_ID": "2008-049A", "EPOCH": "2025-12-08T05:49:37.462080", "MEAN_MOTION": 14.20095152, "ECCENTRICITY": 0.00011114, "INCLINATION": 98.5875, "RA_OF_ASC_NODE": 40.465, "ARG_OF_PERICENTER": 100.5305, "MEAN_ANOMALY": 259.5997, "EPHEMERIS_TYPE": 0, "CLASSIFICATION_TYPE": "U", "NORAD_CAT_ID": 33396, "ELEMENT_SET_NO": 999, "REV_AT_EPOCH": 89086, "BSTAR": 9.3807125e-05, "MEAN_MOTION_DOT": 1.57e-06, "MEAN_MOTION_DDOT": 0}, "tle": {"line1": "1 33396U 08049A   25342.24279470  .00000157  00000+0  93807-4 0  9999", "line2": "2 33396  98.5875  40.4650 0001111 100.5305 259.5997 14.20095152890861"}}, "geometry": {"type": "Point", "coordinates": [39.20549247903378, 11.363926725533858]}}, {"type": "Feature", "properties": {"norad_id": 33412, "name": "COSMO-SKYMED 3", "group": "resource", "lat": -46.222045692950616, "lon": -158.66377842000162, "alt_km": 563.7884214388323, "timestamp": "2025-12-08T17:43:04.550648+00:00", "meta": {"OBJECT_NAME": "COSMO-SKYMED 3", "OBJECT_ID": "2008-054A", "EPOCH": "2025-12-08T05:09:46.708416", "MEAN_MOTION": 15.05286124, "ECCENTRICITY": 0.00157889, "INCLINATION": 97.8458, "RA_OF_ASC_NODE": 192.5308, "ARG_OF_PERICENTER": 189.337, "MEAN_ANOMALY": 170.7565, "EPHEMERIS_TYPE": 0, "CLASSIFICATION_TYPE": "U", "NORAD_CAT_ID": 33412, "ELEMENT_SET_NO": 999, "REV_AT_EPOCH": 92819, "BSTAR": 0.00050709252, "MEAN_MOTION_DOT": 7.208e-05, "MEAN_MOTION_DDOT": 0}, "tle": {"line1": "1 33412U 08054A   25342.21512394  .00007208  00000+0  50709-3 0  9993", "line2": "2 33412  97.8458 192.5308 0015788 189.3370 170.7565 15.05286124928198"}}, "geometry": {"type": "Point", "coordinates": [-158.66377842000162, -46.222045692950616]}}, {"type": "Feature", "properties": {"norad_id": 33446, "name": "YAOGAN-4", "group": "resource", "lat": -77.37321493385798, "lon": 54.4691587204489, "alt_km": 626.0399807916192, "timestamp": "2025-12-08T17:43:04.550658+00:00", "meta": {"OBJECT_NAME": "YAOGAN-4", "OBJECT_ID": "2008-061A", "EPOCH": "2025-12-08T06:49:44.507424", "MEAN_MOTION": 14.82661208, "ECCENTRICITY": 0.00139672, "INCLINATION": 97.9177, "RA_OF_ASC_NODE": 272.4273, "ARG_OF_PERICENTER": 338.5116, "MEAN_ANOMALY": 21.5509, "EPHEMERIS_TYPE": 0, "CLASSIFICATION_TYPE": "U", "NORAD_CAT_ID": 33446, "ELEMENT_SET_NO": 999, "REV_AT_EPOCH": 91737, "BSTAR": 0.00034965041, "MEAN_MOTION_DOT": 2.769e-05, "MEAN_MOTION_DDOT": 0}, "tle": {"line1": "1 33446U 08061A   25342.28454291  .00002769  00000+0  34965-3 0  9999", "line2": "2 33446  97.9177 272.4273 0013967 338.5116  21.5509 14.82661208917379"}}, "geometry": {"type": "Point", "coordinates": [54.4691587204489, -77.37321493385798]}}]}